OSCAR 7 (AO-7)          
1 07530U 74089B   26194.49729306 -.00000027  00000+0  12344-3 0  9991
2 07530 101.9905 208.0181 0012659  81.4998  74.9341 12.53698540363816
PHASE 3B (AO-10)        
1 14129U 83058B   26194.10401074 -.00000187  00000+0  00000+0 0  9995
2 14129  25.9345 215.2934 6002223 122.7887 309.2966  2.05872336296023
UOSAT 2 (UO-11)         
1 14781U 84021B   26194.46481698  .00000706  00000+0  77303-4 0  9990
2 14781  97.8075 159.7493 0009192  96.2389 263.9877 14.90846440261040
LUSAT (LO-19)           
1 20442U 90005G   26194.48470394  .00000044  00000+0  32204-4 0  9999
2 20442  98.8847 217.0141 0012487 126.1000 234.1342 14.34130446906167
EYESAT A (AO-27)        
1 22825U 93061C   26194.15132456  .00000041  00000+0  32598-4 0  9992
2 22825  98.6869 261.5539 0008875  31.5428 328.6285 14.30948752710712
ITAMSAT (IO-26)         
1 22826U 93061D   26194.12298664  .00000033  00000+0  29299-4 0  9999
2 22826  98.6817 261.4457 0009085  15.3060 344.8396 14.31376322711027
RADIO ROSTO (RS15)      
1 23439U 94085A   26194.45664042 -.00000017  00000+0  71764-3 0  9996
2 23439  64.8158 260.7326 0156844 359.0278   1.0321 11.27583549298868
JAS-2 (FO-29)           
1 24278U 96046B   26194.48338286  .00000021  00000+0  55842-4 0  9992
2 24278  98.5220  39.7508 0350436  28.3751 333.5992 13.53275514476726
TECHSAT 1B (GO-32)      
1 25397U 98043D   26194.47571192  .00000017  00000+0  27612-4 0  9997
2 25397  99.0084 187.8991 0002145 117.0535 243.0862 14.24433165455074
ISS (ZARYA)             
1 25544U 98067A   26194.31484285  .00004029  00000+0  81266-4 0  9998
2 25544  51.6305 170.7871 0006687 290.3592  69.6678 15.48997295575806
PCSAT (NO-44)           
1 26931U 01043C   26194.42110002  .00000022  00000+0  39237-4 0  9992
2 26931  67.0493 176.4180 0005942 266.4471  93.5951 14.31964599294209
SAUDISAT 1C (SO-50)     
1 27607U 02058C   26193.91399671  .00000395  00000+0  64575-4 0  9990
2 27607  64.5517  49.3840 0074594 257.6999 101.5749 14.83095930268270
CUTE-1 (CO-55)          
1 27844U 03031E   26194.45028444  .00000157  00000+0  86848-4 0  9995
2 27844  98.6742 202.6793 0010803 107.1223 253.1140 14.24350896195418
CUBESAT XI-IV (CO-57)   
1 27848U 03031J   26194.45194122  .00000131  00000+0  76714-4 0  9999
2 27848  98.6773 202.3723 0010479 123.9671 236.2505 14.23633987195116
MOZHAETS 4 (RS22)       
1 27939U 03042A   26194.56216728  .00000623  00000+0  10404-3 0  9990
2 27939  98.3472  19.6678 0011116 178.4117 254.7606 14.73512902219434
CUBESAT XI-V            
1 28895U 05043F   26194.42545374  .00000720  00000+0  12097-3 0  9990
2 28895  98.3010 350.6030 0015195 120.4468 239.8242 14.72699773105616
CUTE-1.7+APD II (CO-65) 
1 32785U 08021C   26194.49772257  .00003142  00000+0  19913-3 0  9996
2 32785  97.8288 176.4700 0007182 306.3996  53.6570 15.09690795989168
SEEDS II (CO-66)        
1 32791U 08021J   26194.50259132  .00010586  00000+0  32808-3 0  9995
2 32791  97.7522 193.6748 0002886 159.9785 200.1570 15.33629018991329
YUBILEINY (RS30)        
1 32953U 08025A   26194.49527025  .00000027  00000+0  12591-3 0  9992
2 32953  82.5053 339.0738 0018582 252.9517 106.9527 12.43180767822961
KKS-1 (KISEKI)          
1 33499U 09002H   26194.50038176  .00000661  00000+0  87832-4 0  9995
2 33499  98.1176 117.3595 0007285 194.7767 165.3234 14.83186776940093
SWISSCUBE               
1 35932U 09051B   26194.30368549  .00000495  00000+0  10730-3 0  9998
2 35932  98.4011 102.6448 0007766 124.1169 236.0769 14.62528711892977
BEESAT-1                
1 35933U 09051C   26193.71071439  .00000393  00000+0  88659-4 0  9995
2 35933  98.3939 101.6234 0005984 136.3628 223.8047 14.61759519892911
ITUPSAT1                
1 35935U 09051E   26192.97035851  .00000388  00000+0  90106-4 0  9996
2 35935  98.4023 100.0372 0007861 152.4089 207.7529 14.60475983892353
XIWANG-1 (HOPE-1)       
1 36122U 09072B   26194.46357726  .00000151  00000+0  51224-3 0  9997
2 36122 100.4028 147.8772 0007488 168.5233 191.6052 13.16440195796462
O/OREOS (USA 219)       
1 37224U 10062C   26193.97853780  .00001163  00000+0  11533-3 0  9991
2 37224  71.9695  21.9108 0013857   9.4460 350.6968 14.93846697120495
JUGNU                   
1 37839U 11058B   26194.06098558  .00000348  00000+0  42399-4 0  9993
2 37839  19.9592 151.2304 0018498   2.9049  74.5783 14.13783158762692
SRMSAT                  
1 37841U 11058D   26194.45621950  .00000344  00000+0  42889-4 0  9997
2 37841  19.9713 260.4725 0011811 132.1672 338.6137 14.11580880761534
STRAND-1                
1 39090U 13009E   26194.44253241  .00000142  00000+0  62098-4 0  9996
2 39090  98.3932  14.0322 0009320 145.9311 214.2476 14.37178253700832
ZACUBE-1 (TSHEPISOSAT)  
1 39417U 13066B   26194.46840325  .00001341  00000+0  10703-3 0  9996
2 39417  97.8010 156.9353 0043932 160.7484 199.5412 15.01324440684670
GOMX-1                  
1 39430U 13066Q   26194.53709236  .00000862  00000+0  13587-3 0  9994
2 39430  97.6474  33.3373 0128443 353.5444   6.4102 14.69540744673788
